start=new Date('2023-05-27T00:00:00.000Z').valueOf();
sats=[{"MEAN_ANOMALY":"275.0799","NORAD_CAT_ID":"48002","DECAY_DATE":null,"EPHEMERIS_TYPE":"0","RA_OF_ASC_NODE":"153.1953","COUNTRY_CODE":"US","MEAN_ELEMENT_THEORY":"SGP4","BSTAR":"0.00011842000000","PERIAPSIS":"546.419","MEAN_MOTION_DDOT":"0.0000000000000","FILE":"3917630","MEAN_MOTION_DOT":"0.00001483","ARG_OF_PERICENTER":"85.0321","REV_AT_EPOCH":"12206","SEMIMAJOR_AXIS":"6925.352","REF_FRAME":"TEME","MEAN_MOTION":"15.06398852","CLASSIFICATION_TYPE":"U","RCS_SIZE":"LARGE","PERIOD":"95.592","TLE_LINE1":"1 48002U 21024AB  23146.40390842  .00001483  00000-0  11842-3 0  9994","SITE":"AFETR","OBJECT_ID":"2021-024AB","LAUNCH_DATE":"2021-03-24","ELEMENT_SET_NO":"999","CENTER_NAME":"EARTH","OBJECT_TYPE":"PAYLOAD","TLE_LINE2":"2 48002  53.0528 153.1953 0001153  85.0321 275.0799 15.06398852122062","APOAPSIS":"548.016","GP_ID":"232553213","OBJECT_NAME":"STARLINK-2265","ECCENTRICITY":"0.00011530","TIME_SYSTEM":"UTC","EPOCH":"2023-05-26T09:41:37.687488","INCLINATION":"53.0528"},{"NORAD_CAT_ID":"48003","DECAY_DATE":null,"EPHEMERIS_TYPE":"0","RA_OF_ASC_NODE":"227.3416","COUNTRY_CODE":"US","MEAN_ANOMALY":"253.0121","PERIAPSIS":"546.345","MEAN_ELEMENT_THEORY":"SGP4","BSTAR":"0.00022451000000","FILE":"3917630","MEAN_MOTION_DDOT":"0.0000000000000","SEMIMAJOR_AXIS":"6925.354","REF_FRAME":"TEME","REV_AT_EPOCH":"12103","MEAN_MOTION_DOT":"0.00003064","ARG_OF_PERICENTER":"107.1006","PERIOD":"95.592","CLASSIFICATION_TYPE":"U","RCS_SIZE":"LARGE","MEAN_MOTION":"15.06398130","CENTER_NAME":"EARTH","LAUNCH_DATE":"2021-03-24","ELEMENT_SET_NO":"999","SITE":"AFETR","OBJECT_ID":"2021-024AC","TLE_LINE1":"1 48003U 21024AC  23146.52413199  .00003064  00000-0  22451-3 0  9994","ECCENTRICITY":"0.00012620","OBJECT_NAME":"STARLINK-2263","GP_ID":"232553465","APOAPSIS":"548.093","TLE_LINE2":"2 48003  53.0536 227.3416 0001262 107.1006 253.0121 15.06398130121037","OBJECT_TYPE":"PAYLOAD","INCLINATION":"53.0536","EPOCH":"2023-05-26T12:34:45.003936","TIME_SYSTEM":"UTC"},{"INCLINATION":"53.0525","EPOCH":"2023-05-26T08:50:29.694336","TIME_SYSTEM":"UTC","ECCENTRICITY":"0.00012980","OBJECT_NAME":"STARLINK-2254","GP_ID":"232554215","APOAPSIS":"548.131","TLE_LINE2":"2 48005  53.0525 198.0378 0001298 112.2270 247.8857 15.06394104121435","OBJECT_TYPE":"PAYLOAD","CENTER_NAME":"EARTH","LAUNCH_DATE":"2021-03-24","ELEMENT_SET_NO":"999","SITE":"AFETR","OBJECT_ID":"2021-024AE","TLE_LINE1":"1 48005U 21024AE  23146.36839924  .00001078  00000-0  91250-4 0  9993","PERIOD":"95.593","CLASSIFICATION_TYPE":"U","RCS_SIZE":"LARGE","MEAN_MOTION":"15.06394104","SEMIMAJOR_AXIS":"6925.367","REF_FRAME":"TEME","REV_AT_EPOCH":"12143","MEAN_MOTION_DOT":"0.00001078","ARG_OF_PERICENTER":"112.2270","FILE":"3917630","MEAN_MOTION_DDOT":"0.0000000000000","PERIAPSIS":"546.333","MEAN_ELEMENT_THEORY":"SGP4","BSTAR":"0.00009125000000","DECAY_DATE":null,"NORAD_CAT_ID":"48005","EPHEMERIS_TYPE":"0","RA_OF_ASC_NODE":"198.0378","COUNTRY_CODE":"US","MEAN_ANOMALY":"247.8857"},{"INCLINATION":"53.0538","EPOCH":"2023-05-26T06:10:33.617856","TIME_SYSTEM":"UTC","ECCENTRICITY":"0.00012170","OBJECT_NAME":"STARLINK-2271","GP_ID":"232552464","APOAPSIS":"548.070","TLE_LINE2":"2 48008  53.0538 133.5338 0001217  89.6317 270.4811 15.06395561122332","OBJECT_TYPE":"PAYLOAD","CENTER_NAME":"EARTH","ELEMENT_SET_NO":"999","LAUNCH_DATE":"2021-03-24","OBJECT_ID":"2021-024AH","SITE":"AFETR","TLE_LINE1":"1 48008U 21024AH  23146.25733354  .00001347  00000-0  10930-3 0  9998","PERIOD":"95.592","RCS_SIZE":"LARGE","CLASSIFICATION_TYPE":"U","MEAN_MOTION":"15.06395561","REF_FRAME":"TEME","SEMIMAJOR_AXIS":"6925.362","REV_AT_EPOCH":"12233","ARG_OF_PERICENTER":"89.6317","MEAN_MOTION_DOT":"0.00001347","FILE":"3917630","MEAN_MOTION_DDOT":"0.0000000000000","PERIAPSIS":"546.384","BSTAR":"0.00010930000000","MEAN_ELEMENT_THEORY":"SGP4","RA_OF_ASC_NODE":"133.5338","COUNTRY_CODE":"US","DECAY_DATE":null,"NORAD_CAT_ID":"48008","EPHEMERIS_TYPE":"0","MEAN_ANOMALY":"270.4811"},{"SITE":"AFETR","OBJECT_ID":"2021-024AJ","TLE_LINE1":"1 48009U 21024AJ  23146.58126667  .00002432  00000-0  18215-3 0  9998","CENTER_NAME":"EARTH","ELEMENT_SET_NO":"999","LAUNCH_DATE":"2021-03-24","MEAN_MOTION":"15.06395106","PERIOD":"95.592","CLASSIFICATION_TYPE":"U","RCS_SIZE":"LARGE","EPOCH":"2023-05-26T13:57:01.440288","TIME_SYSTEM":"UTC","INCLINATION":"53.0506","TLE_LINE2":"2 48009  53.0506 207.0831 0000965  54.6739 305.4340 15.06395106121332","OBJECT_TYPE":"PAYLOAD","ECCENTRICITY":"0.00009650","OBJECT_NAME":"STARLINK-2153","GP_ID":"232552714","APOAPSIS":"547.897","MEAN_ELEMENT_THEORY":"SGP4","BSTAR":"0.00018215000000","PERIAPSIS":"546.560","MEAN_ANOMALY":"305.4340","NORAD_CAT_ID":"48009","DECAY_DATE":null,"EPHEMERIS_TYPE":"0","RA_OF_ASC_NODE":"207.0831","COUNTRY_CODE":"US","MEAN_MOTION_DOT":"0.00002432","ARG_OF_PERICENTER":"54.6739","SEMIMAJOR_AXIS":"6925.364","REF_FRAME":"TEME","REV_AT_EPOCH":"12133","MEAN_MOTION_DDOT":"0.0000000000000","FILE":"3917630"},{"EPHEMERIS_TYPE":"0","DECAY_DATE":null,"NORAD_CAT_ID":"48010","RA_OF_ASC_NODE":"227.6210","COUNTRY_CODE":"US","MEAN_ANOMALY":"280.3071","PERIAPSIS":"546.375","MEAN_ELEMENT_THEORY":"SGP4","BSTAR":"0.00008598700000","FILE":"3917630","MEAN_MOTION_DDOT":"0.0000000000000","SEMIMAJOR_AXIS":"6925.366","REF_FRAME":"TEME","REV_AT_EPOCH":"12103","MEAN_MOTION_DOT":"0.00000999","ARG_OF_PERICENTER":"79.8057","PERIOD":"95.593","CLASSIFICATION_TYPE":"U","RCS_SIZE":"LARGE","MEAN_MOTION":"15.06394247","CENTER_NAME":"EARTH","LAUNCH_DATE":"2021-03-24","ELEMENT_SET_NO":"999","SITE":"AFETR","OBJECT_ID":"2021-024AK","TLE_LINE1":"1 48010U 21024AK  23146.46146965  .00000999  00000-0  85987-4 0  9997","ECCENTRICITY":"0.00012360","GP_ID":"232553965","OBJECT_NAME":"STARLINK-2226","APOAPSIS":"548.087","TLE_LINE2":"2 48010  53.0529 227.6210 0001236  79.8057 280.3071 15.06394247121036","OBJECT_TYPE":"PAYLOAD","INCLINATION":"53.0529","EPOCH":"2023-05-26T11:04:30.977760","TIME_SYSTEM":"UTC"},{"REF_FRAME":"TEME","SEMIMAJOR_AXIS":"6925.364","REV_AT_EPOCH":"12138","ARG_OF_PERICENTER":"53.1071","MEAN_MOTION_DOT":"0.00003265","FILE":"3917630","MEAN_MOTION_DDOT":"0.0000000000000","PERIAPSIS":"546.366","BSTAR":"0.00023801000000","MEAN_ELEMENT_THEORY":"SGP4","COUNTRY_CODE":"US","RA_OF_ASC_NODE":"207.2171","NORAD_CAT_ID":"48011","DECAY_DATE":null,"EPHEMERIS_TYPE":"0","MEAN_ANOMALY":"307.0032","INCLINATION":"53.0530","EPOCH":"2023-05-26T13:13:11.779392","TIME_SYSTEM":"UTC","ECCENTRICITY":"0.00012450","OBJECT_NAME":"STARLINK-2272","GP_ID":"232553716","APOAPSIS":"548.091","TLE_LINE2":"2 48011  53.0530 207.2171 0001245  53.1071 307.0032 15.06395064121380","OBJECT_TYPE":"PAYLOAD","CENTER_NAME":"EARTH","LAUNCH_DATE":"2021-03-24","ELEMENT_SET_NO":"999","OBJECT_ID":"2021-024AL","SITE":"AFETR","TLE_LINE1":"1 48011U 21024AL  23146.55083078  .00003265  00000-0  23801-3 0  9998","PERIOD":"95.592","RCS_SIZE":"LARGE","CLASSIFICATION_TYPE":"U","MEAN_MOTION":"15.06395064"},{"CENTER_NAME":"EARTH","LAUNCH_DATE":"2021-03-24","ELEMENT_SET_NO":"999","SITE":"AFETR","OBJECT_ID":"2021-024AN","TLE_LINE1":"1 48013U 21024AN  23146.50708088  .00001536  00000-0  12199-3 0  9997","PERIOD":"95.592","CLASSIFICATION_TYPE":"U","RCS_SIZE":"LARGE","MEAN_MOTION":"15.06397295","INCLINATION":"53.0526","EPOCH":"2023-05-26T12:10:11.788032","TIME_SYSTEM":"UTC","ECCENTRICITY":"0.00011980","APOAPSIS":"548.052","GP_ID":"232562444","OBJECT_NAME":"STARLINK-2243","TLE_LINE2":"2 48013  53.0526 192.4159 0001198  89.1575 270.9551 15.06397295121060","OBJECT_TYPE":"PAYLOAD","PERIAPSIS":"546.392","MEAN_ELEMENT_THEORY":"SGP4","BSTAR":"0.00012199000000","DECAY_DATE":null,"NORAD_CAT_ID":"48013","EPHEMERIS_TYPE":"0","COUNTRY_CODE":"US","RA_OF_ASC_NODE":"192.4159","MEAN_ANOMALY":"270.9551","SEMIMAJOR_AXIS":"6925.357","REF_FRAME":"TEME","REV_AT_EPOCH":"12106","MEAN_MOTION_DOT":"0.00001536","ARG_OF_PERICENTER":"89.1575","FILE":"3917785","MEAN_MOTION_DDOT":"0.0000000000000"},{"GP_ID":"232553214","APOAPSIS":"547.969","OBJECT_NAME":"STARLINK-2283","ECCENTRICITY":"0.00010890","OBJECT_TYPE":"PAYLOAD","TLE_LINE2":"2 48014  53.0528 158.6940 0001089  93.8503 266.2611 15.06399721122036","INCLINATION":"53.0528","TIME_SYSTEM":"UTC","EPOCH":"2023-05-26T06:11:17.360448","RCS_SIZE":"LARGE","CLASSIFICATION_TYPE":"U","PERIOD":"95.592","MEAN_MOTION":"15.06399721","ELEMENT_SET_NO":"999","LAUNCH_DATE":"2021-03-24","CENTER_NAME":"EARTH","TLE_LINE1":"1 48014U 21024AP  23146.25783982  .00002860  00000-0  21078-3 0  9993","OBJECT_ID":"2021-024AP","SITE":"AFETR","FILE":"3917630","MEAN_MOTION_DDOT":"0.0000000000000","REV_AT_EPOCH":"12203","REF_FRAME":"TEME","SEMIMAJOR_AXIS":"6925.349","ARG_OF_PERICENTER":"93.8503","MEAN_MOTION_DOT":"0.00002860","RA_OF_ASC_NODE":"158.6940","COUNTRY_CODE":"US","DECAY_DATE":null,"NORAD_CAT_ID":"48014","EPHEMERIS_TYPE":"0","MEAN_ANOMALY":"266.2611","PERIAPSIS":"546.460","BSTAR":"0.00021078000000","MEAN_ELEMENT_THEORY":"SGP4"},{"MEAN_ANOMALY":"264.5919","RA_OF_ASC_NODE":"143.9041","COUNTRY_CODE":"US","DECAY_DATE":null,"NORAD_CAT_ID":"48016","EPHEMERIS_TYPE":"0","BSTAR":"0.00009069800000","MEAN_ELEMENT_THEORY":"SGP4","PERIAPSIS":"546.477","MEAN_MOTION_DDOT":"0.0000000000000","FILE":"3917630","ARG_OF_PERICENTER":"95.5194","MEAN_MOTION_DOT":"0.00001070","REV_AT_EPOCH":"12223","REF_FRAME":"TEME","SEMIMAJOR_AXIS":"6925.365","MEAN_MOTION":"15.06394664","RCS_SIZE":"LARGE","CLASSIFICATION_TYPE":"U","PERIOD":"95.592","TLE_LINE1":"1 48016U 21024AR  23146.22052440  .00001070  00000-0  90698-4 0  9997","OBJECT_ID":"2021-024AR","SITE":"AFETR","ELEMENT_SET_NO":"999","LAUNCH_DATE":"2021-03-24","CENTER_NAME":"EARTH","OBJECT_TYPE":"PAYLOAD","TLE_LINE2":"2 48016  53.0538 143.9041 0001087  95.5194 264.5919 15.06394664122236","APOAPSIS":"547.983","GP_ID":"232553466","OBJECT_NAME":"STARLINK-2284","ECCENTRICITY":"0.00010870","TIME_SYSTEM":"UTC","EPOCH":"2023-05-26T05:17:33.308160","INCLINATION":"53.0538"}];
